HST                     
1 20580U 90037B   21148.48691510  .00000498  00000-0  19140-4 0  9994
2 20580  28.4689 197.1932 0002527 202.6537 258.0088 15.09648677508239
POLAR                   
1 23802U 96013A   21147.95169662  .00000172  00000-0  00000+0 0  9992
2 23802  78.7105 245.6680 6026071 271.8765  24.4854  1.29846840120860
SWAS                    
1 25560U 98071A   21148.33980789  .00000299  00000-0  36432-4 0  9998
2 25560  69.8991 235.7848 0008588 201.5443 158.5353 14.94073607220754
CXO                     
1 25867U 99040B   21149.59749496  .00000554  00000-0  00000-0 0  9994
2 25867  55.5081 255.9676 8293350 226.3943   0.0359  0.37807039 10378
XMM-NEWTON              
1 25989U 99066A   21146.58747629 -.00000213  00000-0  00000-0 0  9992
2 25989  70.8340 312.5421 6612592  90.6305 359.8896  0.50132898 13737
TERRA                   
1 25994U 99068A   21148.45010508  .00000094  00000-0  30926-4 0  9997
2 25994  98.1763 223.2394 0001498  94.6710 322.0897 14.57134040140554
CLUSTER II-FM7 (SAMBA)  
1 26410U 00041A   21149.38685435  .00000402  00000-0  00000-0 0  9993
2 26410 132.7354 344.3516 4878734 191.6209   0.2157  0.44229171 12115
CLUSTER II-FM6 (SALSA)  
1 26411U 00041B   21147.11977208  .00000540  00000-0  00000-0 0  9998
2 26411 133.4506 346.1588 6353308 196.4381   0.2213  0.44282895 12141
CLUSTER II-FM5 (RUMBA)  
1 26463U 00045A   21147.12220462  .00000592  00000-0  00000-0 0  9990
2 26463 137.0907 346.1426 5914164 196.6857   0.1790  0.44277991 12034
CLUSTER II-FM8 (TANGO)  
1 26464U 00045B   21149.38634317  .00000402  00000-0  00000-0 0  9999
2 26464 132.7490 344.3469 4878820 191.6066   0.2212  0.44219944 12129
ODIN                    
1 26702U 01007A   21148.31275885  .00000820  00000-0  56550-4 0  9995
2 26702  97.5375 165.2269 0011505 159.1115 201.0585 15.08470941108808
TIMED                   
1 26998U 01055B   21148.24466390  .00000178  00000-0  23331-4 0  9997
2 26998  74.0718 326.7633 0001877 293.2963  66.8020 14.88308063 55834
RHESSI                  
1 27370U 02004A   21148.33764534  .00003654  00000-0  10925-3 0  9994
2 27370  38.0320 223.4603 0012281 276.3711  83.5662 15.34933746 67310
INTEGRAL                
1 27540U 02048A   21146.65880403  .00000468  00000-0  00000+0 0  9997
2 27540  63.6149  86.2332 8994773 299.0599   1.9375  0.37575794 19689
CORIOLIS                
1 27640U 03001A   21148.50445427  .00000005  00000-0  23368-4 0  9991
2 27640  98.7216 158.6068 0015197 122.3546  29.7886 14.19071418952354
SORCE                   
1 27651U 03004A   21148.47549946  .00000147  00000-0  29234-4 0  9998
2 27651  39.9946 205.7068 0023561 286.2413  73.5784 14.89304617995677
MOST                    
1 27843U 03031D   21148.31466619 -.00000012  00000-0  14925-4 0  9992
2 27843  98.7085 156.5742 0010112 172.5832 187.5496 14.20636868928560
SCISAT 1                
1 27858U 03036A   21148.35542703  .00000069  00000-0  14743-4 0  9995
2 27858  73.9336 224.2552 0008354 342.4145  17.6739 14.77350419958587
SWIFT                   
1 28485U 04047A   21147.33999564  .00000822  00000-0  25291-4 0  9990
2 28485  20.5558 136.8912 0011302  88.3884 271.7844 15.04996134905368
FORMOSAT-3 FM6          
1 29047U 06011A   21148.36382184  .00000045  00000-0  33801-4 0  9999
2 29047  71.9768 125.9689 0050796 189.0524 170.9702 14.28812484790596
FORMOSAT-3 FM1          
1 29048U 06011B   21148.39084897  .00000099  00000-0  55223-4 0  9994
2 29048  71.9681  36.4206 0043048 147.4811 212.8991 14.28776683793051
FORMOSAT-3 FM5          
1 29049U 06011C   21148.44321361  .00000118  00000-0  62546-4 0  9999
2 29049  72.0204 209.9251 0034694 172.0788 188.0904 14.28858299788850
FORMOSAT-3 FM3          
1 29050U 06011D   21148.43234939  .00000181  00000-0  48265-4 0  9996
2 29050  72.0155 320.7469 0048539  56.7743 303.8049 14.59068113806740
FORMOSAT-3 FM4          
1 29051U 06011E   21148.29498881  .00000078  00000-0  46044-4 0  9997
2 29051  72.0041 111.6155 0066847  47.5557 313.1205 14.28889985791449
FORMOSAT-3 FM2          
1 29052U 06011F   21148.40937196  .00000096  00000-0  53727-4 0  9994
2 29052  72.0334 186.6178 0038721 129.3660 231.0918 14.29000282789796
CLOUDSAT                
1 29107U 06016A   21148.36211341  .00000107  00000-0  30625-4 0  9997
2 29107  98.2775 101.3082 0001763  70.3866 289.7525 14.62369702802908
CALIPSO                 
1 29108U 06016B   21148.40025890  .00000170  00000-0  43062-4 0  9994
2 29108  98.2750 101.1187 0001424  85.6050 274.5314 14.62548632802756
HINODE (SOLAR-B)        
1 29479U 06041A   21148.27357534  .00000109  00000-0  29638-4 0  9996
2 29479  98.1360 163.0544 0019161   2.5349 357.5947 14.64558532784387
SJ-6C                   
1 29505U 06046A   21148.48972201  .00000805  00000-0  78664-4 0  9994
2 29505  97.7999 166.7793 0004039 350.3899   9.7223 14.95152749795163
SJ-6D                   
1 29506U 06046B   21148.49927566 -.00000510  00000-0 -42950-4 0  9994
2 29506  97.8190 167.0053 0003735  70.7363 289.4245 14.93605674794676
AGILE                   
1 31135U 07013A   21148.10194139  .00003024  00000-0  55433-4 0  9991
2 31135   2.4690  17.1448 0011282 168.0632 191.9690 15.33547896785029
AIM                     
1 31304U 07015A   21148.31726192  .00001459  00000-0  83341-4 0  9993
2 31304  97.8707  49.3134 0003526 255.7970 104.2870 15.14402874772864
FGRST (GLAST)           
1 33053U 08029A   21147.74845019  .00000541  00000-0  14098-4 0  9992
2 33053  25.5824 275.4494 0012511  34.3066 325.8275 15.11526167715302
WISE                    
1 36119U 09071A   21148.36559721  .00001478  00000-0  52021-4 0  9995
2 36119  97.2853 185.2758 0001433 192.0799 168.0408 15.30880216636578
SDO                     
1 36395U 10005A   21148.42805166 -.00000067  00000-0  00000+0 0  9993
2 36395  30.9325 115.5278 0001613 298.8245 244.2008  1.00271764 41528
CRYOSAT 2               
1 36508U 10013A   21148.40565453  .00000077  00000-0  18232-4 0  9999
2 36508  92.0130 191.0504 0008211 110.1777 250.0314 14.51907520590301
X-SAT                   
1 37389U 11015C   21148.42431847 -.00000037  00000-0  19057-5 0  9995
2 37389  98.3833 195.1573 0014338   6.6617 353.4753 14.24389125525395
GCOM-W1 (SHIZUKU)       
1 38337U 12025A   21148.35090734  .00000077  00000-0  27219-4 0  9990
2 38337  98.2082  89.3289 0001359  40.6932 117.0812 14.57117980480225
NUSTAR                  
1 38358U 12031A   21148.40258596  .00001120  00000-0  42992-4 0  9993
2 38358   6.0271 282.9405 0011686 186.7090 173.2883 14.88532201487474
NEOSSAT                 
1 39089U 13009D   21148.32253588  .00000027  00000-0  24956-4 0  9993
2 39089  98.4438 348.8196 0011092 349.3777  10.7173 14.34564890432001
IRIS                    
1 39197U 13033A   21148.42415486  .00000166  00000-0  29597-4 0  9998
2 39197  97.9657 332.9059 0027286 191.4882 168.5710 14.78856389427081
HISAKI (SPRINT-A)       
1 39253U 13049A   21148.41026976  .00000099  00000-0  43937-4 0  9998
2 39253  29.7193 241.3874 0136795 177.0003 183.1411 13.55248951381872
CASSIOPE                
1 39265U 13055A   21148.38701103  .00003546  00000-0  97810-4 0  9995
2 39265  80.9652 313.1493 0649388  12.8089 348.8727 14.32181894397107
STSAT-3                 
1 39422U 13066G   21148.31321032 -.00000268  00000-0 -22254-4 0  9994
2 39422  97.4790 169.2490 0024537 122.9414 237.4181 14.89959849408489
SWARM B                 
1 39451U 13067A   21148.34623483  .00000500  00000-0  20354-4 0  9991
2 39451  87.7562 176.6727 0002699  64.8377 295.3148 15.22022700416987
SWARM A                 
1 39452U 13067B   21148.35523704  .00001832  00000-0  37125-4 0  9991
2 39452  87.3615   5.0968 0003502  94.4291 265.7368 15.45608925422473
SWARM C                 
1 39453U 13067C   21148.35515437  .00001840  00000-0  37287-4 0  9994
2 39453  87.3468   5.3522 0003505  94.4730 265.6928 15.45609298422431
BRITE-CA1 (TORONTO)     
1 40020U 14033L   21148.48003179  .00000069  00000-0  19941-4 0  9998
2 40020  97.7417 323.0988 0088405  52.2461 308.6712 14.66739105371348
OCO 2                   
1 40059U 14035A   21148.38650788  .00000058  00000-0  22991-4 0  9992
2 40059  98.2086  90.1035 0001042  86.6996 273.4322 14.57126856367264
BRITE-PL2 (HEWELIUSZ)   
1 40119U 14049B   21148.20944162  .00000200  00000-0  29954-4 0  9992
2 40119  97.8868 242.9064 0018668  64.7287 295.5859 14.84651635366936
RESURS P2               
1 40360U 14087A   21148.48298991  .00000870  00000-0  28509-4 0  9992
2 40360  97.2277 236.3833 0010868  39.2325  16.0291 15.34239699359203
MMS 1                   
1 40482U 15011A   21147.61551965 -.00000555  00000-0  00000+0 0  9994
2 40482  33.3132 117.0736 8429708  32.4460 188.8080  0.28584926 12209
MMS 2                   
1 40483U 15011B   21147.61547334 -.00000556  00000-0  00000+0 0  9991
2 40483  33.3129 117.0590 8429590  32.4553 188.8167  0.28584939 12172
MMS 3                   
1 40484U 15011C   21143.65464177  .00000066  00000-0  00000-0 0  9991
2 40484  33.3129 117.1874 8434633  32.2989 141.8348  0.28552611 11939
MMS 4                   
1 40485U 15011D   21146.29711744 -.00000380  00000-0  00000-0 0  9990
2 40485  33.3011 117.0905 8426544  32.4384  53.1778  0.28570074 12157
ASTROSAT                
1 40930U 15052A   21148.09947263  .00000763  00000-0  18008-4 0  9992
2 40930   5.9975  45.6003 0008056 105.9061 254.1955 14.76402233306150
DAMPE                   
1 41173U 15078A   21148.49222280  .00000124  00000-0  80096-5 0  9997
2 41173  97.3475 141.0672 0015390 112.3947   4.4518 15.24006430302944
PISAT                   
1 41784U 16059B   21148.41071946  .00000156  00000-0  38859-4 0  9992
2 41784  97.9683 200.5841 0030690 307.2085  52.6318 14.63623669249366
HXMT (HUIYAN)           
1 42758U 17034A   21148.52984934  .00000162  00000-0  23633-4 0  9991
2 42758  43.0177 302.4836 0008904  25.3756  86.2203 15.09185329218000
FLYING LAPTOP           
1 42831U 17042G   21148.36544330 -.00000401  00000-0 -34986-4 0  9997
2 42831  97.4733  19.1875 0012898 208.4710 151.5795 14.91292211210697
PICSAT                  
1 43132U 18004X   21148.44991608  .00002675  00000-0  10748-3 0  9996
2 43132  97.4092 223.1720 0007324 280.3311  79.7102 15.25796682187639
ZHANGZHENG-1 (CSES)     
1 43194U 18015C   21148.52879587  .00001175  00000-0  56085-4 0  9995
2 43194  97.4754 276.0401 0013310 348.1899 141.7913 15.20982910184117
ICON                    
1 44628U 19068A   21147.81360776  .00000593  00000-0  37503-4 0  9990
2 44628  26.9901 306.5924 0019023 112.0031 248.2549 14.91940707 88906
SALSAT                  
1 46495U 20068K   21147.89553721  .00000804  00000-0  63428-4 0  9998
2 46495  97.6932  85.5126 0018100 138.4136 221.8469 15.03453981 36245
